start=new Date('2023-02-02T00:00:00.000Z').valueOf();
sats=[{"MEAN_ELEMENT_THEORY":"SGP4","REV_AT_EPOCH":"2638","INCLINATION":"97.6544","ELEMENT_SET_NO":"999","CLASSIFICATION_TYPE":"U","DECAY_DATE":null,"PERIAPSIS":"562.641","ARG_OF_PERICENTER":"265.5519","MEAN_MOTION_DOT":"-0.00005696","FILE":"3767705","LAUNCH_DATE":"2022-08-12","CENTER_NAME":"EARTH","GP_ID":"224205064","RA_OF_ASC_NODE":"155.6558","OBJECT_ID":"2022-099AS","TLE_LINE2":"2 53505  97.6544 155.6558 0000582 265.5519  94.5639 15.01249400 26389","EPHEMERIS_TYPE":"0","SITE":"AFWTR","SEMIMAJOR_AXIS":"6941.180","BSTAR":"-0.00043937000000","REF_FRAME":"TEME","MEAN_MOTION_DDOT":"0.0000000000000","RCS_SIZE":"MEDIUM","APOAPSIS":"563.448","OBJECT_TYPE":"PAYLOAD","TLE_LINE1":"1 53505U 22099AS  23032.64269769 -.00005696  00000-0 -43937-3 0  9996","COUNTRY_CODE":"US","EPOCH":"2023-02-01T15:25:29.080416","NORAD_CAT_ID":"53505","MEAN_ANOMALY":"94.5639","TIME_SYSTEM":"UTC","ECCENTRICITY":"0.00005820","OBJECT_NAME":"STARLINK-4446","PERIOD":"95.920","MEAN_MOTION":"15.01249400"},{"TIME_SYSTEM":"UTC","ECCENTRICITY":"0.00006450","MEAN_ANOMALY":"130.6823","NORAD_CAT_ID":"53506","PERIOD":"95.919","MEAN_MOTION":"15.01270282","OBJECT_NAME":"STARLINK-4437","OBJECT_TYPE":"PAYLOAD","APOAPSIS":"563.428","RCS_SIZE":"LARGE","EPOCH":"2023-02-01T07:28:35.493024","COUNTRY_CODE":"US","TLE_LINE1":"1 53506U 22099AT  23032.31152191  .00002079  00000-0  16639-3 0  9990","TLE_LINE2":"2 53506  97.6545 155.3277 0000645 229.4345 130.6823 15.01270282 26099","OBJECT_ID":"2022-099AT","RA_OF_ASC_NODE":"155.3277","GP_ID":"224200931","MEAN_MOTION_DDOT":"0.0000000000000","REF_FRAME":"TEME","BSTAR":"0.00016639000000","SEMIMAJOR_AXIS":"6941.115","SITE":"AFWTR","EPHEMERIS_TYPE":"0","ELEMENT_SET_NO":"999","CLASSIFICATION_TYPE":"U","MEAN_ELEMENT_THEORY":"SGP4","REV_AT_EPOCH":"2609","INCLINATION":"97.6545","FILE":"3767525","LAUNCH_DATE":"2022-08-12","CENTER_NAME":"EARTH","MEAN_MOTION_DOT":"0.00002079","ARG_OF_PERICENTER":"229.4345","DECAY_DATE":null,"PERIAPSIS":"562.532"},{"PERIOD":"95.919","MEAN_MOTION":"15.01268088","OBJECT_NAME":"STARLINK-4444","ECCENTRICITY":"0.00014620","TIME_SYSTEM":"UTC","NORAD_CAT_ID":"53507","MEAN_ANOMALY":"108.2183","COUNTRY_CODE":"US","EPOCH":"2023-02-01T07:22:54.435072","TLE_LINE1":"1 53507U 22099AU  23032.30757448  .00002065  00000-0  16530-3 0  9991","RCS_SIZE":"LARGE","APOAPSIS":"564.002","OBJECT_TYPE":"PAYLOAD","SEMIMAJOR_AXIS":"6941.122","REF_FRAME":"TEME","BSTAR":"0.00016530000000","MEAN_MOTION_DDOT":"0.0000000000000","SITE":"AFWTR","EPHEMERIS_TYPE":"0","RA_OF_ASC_NODE":"155.3263","OBJECT_ID":"2022-099AU","TLE_LINE2":"2 53507  97.6541 155.3263 0001462 251.8882 108.2183 15.01268088 26095","GP_ID":"224199679","MEAN_MOTION_DOT":"0.00002065","FILE":"3767525","LAUNCH_DATE":"2022-08-12","CENTER_NAME":"EARTH","PERIAPSIS":"561.972","DECAY_DATE":null,"ARG_OF_PERICENTER":"251.8882","ELEMENT_SET_NO":"999","CLASSIFICATION_TYPE":"U","MEAN_ELEMENT_THEORY":"SGP4","REV_AT_EPOCH":"2609","INCLINATION":"97.6541"},{"ECCENTRICITY":"0.00008680","TIME_SYSTEM":"UTC","NORAD_CAT_ID":"53508","MEAN_ANOMALY":"147.9343","PERIOD":"95.919","MEAN_MOTION":"15.01273000","OBJECT_NAME":"STARLINK-4443","RCS_SIZE":"LARGE","OBJECT_TYPE":"PAYLOAD","APOAPSIS":"563.574","COUNTRY_CODE":"US","EPOCH":"2023-02-01T12:16:10.310880","TLE_LINE1":"1 53508U 22099AV  23032.51123045  .00002541  00000-0  20232-3 0  9998","OBJECT_ID":"2022-099AV","RA_OF_ASC_NODE":"155.5283","TLE_LINE2":"2 53508  97.6534 155.5283 0000868 212.1829 147.9343 15.01273000 26124","GP_ID":"224199929","SEMIMAJOR_AXIS":"6941.107","REF_FRAME":"TEME","BSTAR":"0.00020232000000","MEAN_MOTION_DDOT":"0.0000000000000","SITE":"AFWTR","EPHEMERIS_TYPE":"0","ELEMENT_SET_NO":"999","CLASSIFICATION_TYPE":"U","MEAN_ELEMENT_THEORY":"SGP4","REV_AT_EPOCH":"2612","INCLINATION":"97.6534","MEAN_MOTION_DOT":"0.00002541","CENTER_NAME":"EARTH","FILE":"3767525","LAUNCH_DATE":"2022-08-12","PERIAPSIS":"562.369","DECAY_DATE":null,"ARG_OF_PERICENTER":"212.1829"},{"CLASSIFICATION_TYPE":"U","ELEMENT_SET_NO":"999","INCLINATION":"97.6576","REV_AT_EPOCH":"2609","MEAN_ELEMENT_THEORY":"SGP4","CENTER_NAME":"EARTH","FILE":"3767525","LAUNCH_DATE":"2022-08-12","MEAN_MOTION_DOT":"-0.00000132","ARG_OF_PERICENTER":"280.4148","DECAY_DATE":null,"PERIAPSIS":"561.818","TLE_LINE2":"2 53509  97.6576 155.3173 0001658 280.4148  79.6890 15.01273880 26097","RA_OF_ASC_NODE":"155.3173","OBJECT_ID":"2022-099AW","GP_ID":"224200681","MEAN_MOTION_DDOT":"0.0000000000000","SEMIMAJOR_AXIS":"6941.104","BSTAR":"-0.00000567290000","REF_FRAME":"TEME","EPHEMERIS_TYPE":"0","SITE":"AFWTR","OBJECT_TYPE":"PAYLOAD","APOAPSIS":"564.120","RCS_SIZE":"LARGE","COUNTRY_CODE":"US","EPOCH":"2023-02-01T07:17:55.787424","TLE_LINE1":"1 53509U 22099AW  23032.30411791 -.00000132  00000-0 -56729-5 0  9992","TIME_SYSTEM":"UTC","ECCENTRICITY":"0.00016580","MEAN_ANOMALY":"79.6890","NORAD_CAT_ID":"53509","PERIOD":"95.919","MEAN_MOTION":"15.01273880","OBJECT_NAME":"STARLINK-4402"},{"REV_AT_EPOCH":"2609","INCLINATION":"97.6548","MEAN_ELEMENT_THEORY":"SGP4","CLASSIFICATION_TYPE":"U","ELEMENT_SET_NO":"999","PERIAPSIS":"562.235","DECAY_DATE":null,"ARG_OF_PERICENTER":"267.3398","MEAN_MOTION_DOT":"0.00002486","LAUNCH_DATE":"2022-08-12","FILE":"3767525","CENTER_NAME":"EARTH","GP_ID":"224200432","RA_OF_ASC_NODE":"155.3196","OBJECT_ID":"2022-099AX","TLE_LINE2":"2 53510  97.6548 155.3196 0001073 267.3398  92.7703 15.01270435 26097","SITE":"AFWTR","EPHEMERIS_TYPE":"0","SEMIMAJOR_AXIS":"6941.115","REF_FRAME":"TEME","BSTAR":"0.00019805000000","MEAN_MOTION_DDOT":"0.0000000000000","RCS_SIZE":"LARGE","OBJECT_TYPE":"PAYLOAD","APOAPSIS":"563.724","TLE_LINE1":"1 53510U 22099AX  23032.30572463  .00002486  00000-0  19805-3 0  9992","COUNTRY_CODE":"US","EPOCH":"2023-02-01T07:20:14.608032","NORAD_CAT_ID":"53510","MEAN_ANOMALY":"92.7703","ECCENTRICITY":"0.00010730","TIME_SYSTEM":"UTC","OBJECT_NAME":"STARLINK-4441","MEAN_MOTION":"15.01270435","PERIOD":"95.919"},{"TIME_SYSTEM":"UTC","ECCENTRICITY":"0.00012120","MEAN_ANOMALY":"253.7926","NORAD_CAT_ID":"53527","PERIOD":"95.436","MEAN_MOTION":"15.08867274","OBJECT_NAME":"STARLINK-4511","OBJECT_TYPE":"PAYLOAD","APOAPSIS":"540.500","RCS_SIZE":"LARGE","COUNTRY_CODE":"US","EPOCH":"2023-02-01T11:14:02.378112","TLE_LINE1":"1 53527U 22101A   23032.46808308  .00007838  00000-0  50964-3 0  9998","TLE_LINE2":"2 53527  53.2171 116.8561 0001212 106.3199 253.7926 15.08867274 25230","OBJECT_ID":"2022-101A","RA_OF_ASC_NODE":"116.8561","GP_ID":"224200933","MEAN_MOTION_DDOT":"0.0000000000000","SEMIMAJOR_AXIS":"6917.797","BSTAR":"0.00050964000000","REF_FRAME":"TEME","SITE":"AFETR","EPHEMERIS_TYPE":"0","CLASSIFICATION_TYPE":"U","ELEMENT_SET_NO":"999","REV_AT_EPOCH":"2523","MEAN_ELEMENT_THEORY":"SGP4","INCLINATION":"53.2171","FILE":"3767525","CENTER_NAME":"EARTH","LAUNCH_DATE":"2022-08-19","MEAN_MOTION_DOT":"0.00007838","ARG_OF_PERICENTER":"106.3199","DECAY_DATE":null,"PERIAPSIS":"538.824"},{"TLE_LINE1":"1 53528U 22101B   23032.53799684  .00001061  00000-0  84722-4 0  9995","COUNTRY_CODE":"US","EPOCH":"2023-02-01T12:54:42.926976","RCS_SIZE":"LARGE","APOAPSIS":"540.526","OBJECT_TYPE":"PAYLOAD","OBJECT_NAME":"STARLINK-4503","PERIOD":"95.437","MEAN_MOTION":"15.08847363","NORAD_CAT_ID":"53528","MEAN_ANOMALY":"261.3213","ECCENTRICITY":"0.00011610","TIME_SYSTEM":"UTC","DECAY_DATE":null,"PERIAPSIS":"538.920","ARG_OF_PERICENTER":"98.7910","MEAN_MOTION_DOT":"0.00001061","CENTER_NAME":"EARTH","FILE":"3767607","LAUNCH_DATE":"2022-08-19","INCLINATION":"53.2169","REV_AT_EPOCH":"2524","MEAN_ELEMENT_THEORY":"SGP4","ELEMENT_SET_NO":"999","CLASSIFICATION_TYPE":"U","SITE":"AFETR","EPHEMERIS_TYPE":"0","SEMIMAJOR_AXIS":"6917.858","BSTAR":"0.00008472200000","REF_FRAME":"TEME","MEAN_MOTION_DDOT":"0.0000000000000","GP_ID":"224202748","RA_OF_ASC_NODE":"116.5475","OBJECT_ID":"2022-101B","TLE_LINE2":"2 53528  53.2169 116.5475 0001161  98.7910 261.3213 15.08847363 25249"},{"TLE_LINE1":"1 53529U 22101C   23032.46439879  .00000988  00000-0  80171-4 0  9996","EPOCH":"2023-02-01T11:08:44.055456","COUNTRY_CODE":"US","RCS_SIZE":"LARGE","OBJECT_TYPE":"PAYLOAD","APOAPSIS":"540.709","OBJECT_NAME":"STARLINK-4478","MEAN_MOTION":"15.08842210","PERIOD":"95.437","NORAD_CAT_ID":"53529","MEAN_ANOMALY":"244.7934","ECCENTRICITY":"0.00014030","TIME_SYSTEM":"UTC","PERIAPSIS":"538.768","DECAY_DATE":null,"ARG_OF_PERICENTER":"115.3204","MEAN_MOTION_DOT":"0.00000988","FILE":"3767525","LAUNCH_DATE":"2022-08-19","CENTER_NAME":"EARTH","REV_AT_EPOCH":"2523","INCLINATION":"53.2202","MEAN_ELEMENT_THEORY":"SGP4","CLASSIFICATION_TYPE":"U","ELEMENT_SET_NO":"999","SITE":"AFETR","EPHEMERIS_TYPE":"0","BSTAR":"0.00008017100000","REF_FRAME":"TEME","SEMIMAJOR_AXIS":"6917.874","MEAN_MOTION_DDOT":"0.0000000000000","GP_ID":"224199931","OBJECT_ID":"2022-101C","RA_OF_ASC_NODE":"116.8753","TLE_LINE2":"2 53529  53.2202 116.8753 0001403 115.3204 244.7934 15.08842210 25231"},{"COUNTRY_CODE":"US","EPOCH":"2023-02-01T12:34:53.985216","TLE_LINE1":"1 53530U 22101D   23032.52423594 -.00000746  00000-0 -28771-4 0  9994","RCS_SIZE":"LARGE","APOAPSIS":"540.598","OBJECT_TYPE":"PAYLOAD","PERIOD":"95.437","MEAN_MOTION":"15.08850445","OBJECT_NAME":"STARLINK-4482","ECCENTRICITY":"0.00012790","TIME_SYSTEM":"UTC","NORAD_CAT_ID":"53530","MEAN_ANOMALY":"266.8221","MEAN_MOTION_DOT":"-0.00000746","LAUNCH_DATE":"2022-08-19","FILE":"3767525","CENTER_NAME":"EARTH","DECAY_DATE":null,"PERIAPSIS":"538.829","ARG_OF_PERICENTER":"93.2917","CLASSIFICATION_TYPE":"U","ELEMENT_SET_NO":"999","REV_AT_EPOCH":"2524","MEAN_ELEMENT_THEORY":"SGP4","INCLINATION":"53.2174","SEMIMAJOR_AXIS":"6917.848","REF_FRAME":"TEME","BSTAR":"-0.00002877100000","MEAN_MOTION_DDOT":"0.0000000000000","EPHEMERIS_TYPE":"0","SITE":"AFETR","RA_OF_ASC_NODE":"116.6064","OBJECT_ID":"2022-101D","TLE_LINE2":"2 53530  53.2174 116.6064 0001279  93.2917 266.8221 15.08850445 25244","GP_ID":"224200683"}];
